{
  "type": "FeatureCollection",
  "features": [
    {
      "type": "Feature",
      "properties": {
        "norad_id": 35987,
        "name": "COSMOS 2251 DEB",
        "group": "cosmos-2251-debris",
        "lat": 54.137130184635566,
        "lon": -12.211457940235771,
        "alt_km": 714.996261309916,
        "timestamp": "2025-12-13T22:39:30.108339+00:00",
        "meta_object_name": "COSMOS 2251 DEB",
        "meta_object_id": "1993-036AWD",
        "meta_epoch": "2025-12-11T05:30:31.150080",
        "meta_mean_motion": 14.43110132,
        "meta_eccentricity": 0.00459363,
        "meta_inclination": 74.0001,
        "meta_ra_of_asc_node": 329.4532,
        "meta_arg_of_pericenter": 95.6067,
        "meta_mean_anomaly": 265.033,
        "meta_ephemeris_type": 0,
        "meta_classification_type": "U",
        "meta_norad_cat_id": 35987,
        "meta_element_set_no": 999,
        "meta_rev_at_epoch": 61043,
        "meta_bstar": 0.0014697546,
        "meta_mean_motion_dot": 4.973e-05,
        "meta_mean_motion_ddot": 0,
        "tle_line1": "1 35987U 93036AWD 25345.22952720  .00004973  00000+0  14698-2 0  9993",
        "tle_line2": "2 35987  74.0001 329.4532 0045936  95.6067 265.0330 14.43110132610437"
      },
      "geometry": {
        "type": "Point",
        "coordinates": [
          -12.211457940235771,
          54.137130184635566
        ]
      }
    },
    {
      "type": "Feature",
      "properties": {
        "norad_id": 35989,
        "name": "COSMOS 2251 DEB",
        "group": "cosmos-2251-debris",
        "lat": 69.4510861305206,
        "lon": -28.608085655286438,
        "alt_km": 756.5691046784259,
        "timestamp": "2025-12-13T22:39:30.108349+00:00",
        "meta_object_name": "COSMOS 2251 DEB",
        "meta_object_id": "1993-036AWF",
        "meta_epoch": "2025-12-13T02:15:17.161632",
        "meta_mean_motion": 14.3710324,
        "meta_eccentricity": 0.00220362,
        "meta_inclination": 74.0383,
        "meta_ra_of_asc_node": 283.1801,
        "meta_arg_of_pericenter": 4.8698,
        "meta_mean_anomaly": 355.2666,
        "meta_ephemeris_type": 0,
        "meta_classification_type": "U",
        "meta_norad_cat_id": 35989,
        "meta_element_set_no": 999,
        "meta_rev_at_epoch": 87184,
        "meta_bstar": 0.00037396627,
        "meta_mean_motion_dot": 1.088e-05,
        "meta_mean_motion_ddot": 0,
        "tle_line1": "1 35989U 93036AWF 25347.09394863  .00001088  00000+0  37397-3 0  9996",
        "tle_line2": "2 35989  74.0383 283.1801 0022036   4.8698 355.2666 14.37103240871848"
      },
      "geometry": {
        "type": "Point",
        "coordinates": [
          -28.608085655286438,
          69.4510861305206
        ]
      }
    },
    {
      "type": "Feature",
      "properties": {
        "norad_id": 35993,
        "name": "COSMOS 2251 DEB",
        "group": "cosmos-2251-debris",
        "lat": 69.48027016779761,
        "lon": 20.46291913699143,
        "alt_km": 666.3537598611101,
        "timestamp": "2025-12-13T22:39:30.108360+00:00",
        "meta_object_name": "COSMOS 2251 DEB",
        "meta_object_id": "1993-036AWK",
        "meta_epoch": "2025-12-13T05:55:18.939936",
        "meta_mean_motion": 14.6530961,
        "meta_eccentricity": 0.00288758,
        "meta_inclination": 74.015,
        "meta_ra_of_asc_node": 331.8205,
        "meta_arg_of_pericenter": 161.3333,
        "meta_mean_anomaly": 198.8902,
        "meta_ephemeris_type": 0,
        "meta_classification_type": "U",
        "meta_norad_cat_id": 35993,
        "meta_element_set_no": 999,
        "meta_rev_at_epoch": 60450,
        "meta_bstar": 0.0012058199,
        "meta_mean_motion_dot": 6.521e-05,
        "meta_mean_motion_ddot": 0,
        "tle_line1": "1 35993U 93036AWK 25347.24674699  .00006521  00000+0  12058-2 0  9999",
        "tle_line2": "2 35993  74.0150 331.8205 0028875 161.3333 198.8902 14.65309610604507"
      },
      "geometry": {
        "type": "Point",
        "coordinates": [
          20.46291913699143,
          69.48027016779761
        ]
      }
    },
    {
      "type": "Feature",
      "properties": {
        "norad_id": 35996,
        "name": "COSMOS 2251 DEB",
        "group": "cosmos-2251-debris",
        "lat": -6.927040562870152,
        "lon": 98.9399851734149,
        "alt_km": 600.0322512434204,
        "timestamp": "2025-12-13T22:39:30.108370+00:00",
        "meta_object_name": "COSMOS 2251 DEB",
        "meta_object_id": "1993-036AWN",
        "meta_epoch": "2025-12-11T00:41:09.521088",
        "meta_mean_motion": 15.0906793,
        "meta_eccentricity": 0.00884253,
        "meta_inclination": 74.0157,
        "meta_ra_of_asc_node": 106.9511,
        "meta_arg_of_pericenter": 198.4339,
        "meta_mean_anomaly": 161.3644,
        "meta_ephemeris_type": 0,
        "meta_classification_type": "U",
        "meta_norad_cat_id": 35996,
        "meta_element_set_no": 999,
        "meta_rev_at_epoch": 72300,
        "meta_bstar": 0.0011651351,
        "meta_mean_motion_dot": 0.00020245,
        "meta_mean_motion_ddot": 0,
        "tle_line1": "1 35996U 93036AWN 25345.02858242  .00020245  00000+0  11651-2 0  9991",
        "tle_line2": "2 35996  74.0157 106.9511 0088425 198.4339 161.3644 15.09067930723002"
      },
      "geometry": {
        "type": "Point",
        "coordinates": [
          98.9399851734149,
          -6.927040562870152
        ]
      }
    },
    {
      "type": "Feature",
      "properties": {
        "norad_id": 35997,
        "name": "COSMOS 2251 DEB",
        "group": "cosmos-2251-debris",
        "lat": -12.550264505022069,
        "lon": 8.680226501341354,
        "alt_km": 721.1242760160276,
        "timestamp": "2025-12-13T22:39:30.108380+00:00",
        "meta_object_name": "COSMOS 2251 DEB",
        "meta_object_id": "1993-036AWP",
        "meta_epoch": "2025-12-13T06:52:53.661216",
        "meta_mean_motion": 14.51318042,
        "meta_eccentricity": 0.00157361,
        "meta_inclination": 74.043,
        "meta_ra_of_asc_node": 186.2643,
        "meta_arg_of_pericenter": 261.7105,
        "meta_mean_anomaly": 98.2272,
        "meta_ephemeris_type": 0,
        "meta_classification_type": "U",
        "meta_norad_cat_id": 35997,
        "meta_element_set_no": 999,
        "meta_rev_at_epoch": 70892,
        "meta_bstar": 0.00097236156,
        "meta_mean_motion_dot": 3.852e-05,
        "meta_mean_motion_ddot": 0,
        "tle_line1": "1 35997U 93036AWP 25347.28673219  .00003852  00000+0  97236-3 0  9990",
        "tle_line2": "2 35997  74.0430 186.2643 0015736 261.7105  98.2272 14.51318042708922"
      },
      "geometry": {
        "type": "Point",
        "coordinates": [
          8.680226501341354,
          -12.550264505022069
        ]
      }
    },
    {
      "type": "Feature",
      "properties": {
        "norad_id": 36005,
        "name": "COSMOS 2251 DEB",
        "group": "cosmos-2251-debris",
        "lat": -26.16754751517227,
        "lon": -80.15653905850372,
        "alt_km": 698.6090381969843,
        "timestamp": "2025-12-13T22:39:30.108390+00:00",
        "meta_object_name": "COSMOS 2251 DEB",
        "meta_object_id": "1993-036AWX",
        "meta_epoch": "2025-12-13T00:08:06.545184",
        "meta_mean_motion": 14.47358791,
        "meta_eccentricity": 0.00619434,
        "meta_inclination": 74.0268,
        "meta_ra_of_asc_node": 93.5081,
        "meta_arg_of_pericenter": 230.821,
        "meta_mean_anomaly": 128.7437,
        "meta_ephemeris_type": 0,
        "meta_classification_type": "U",
        "meta_norad_cat_id": 36005,
        "meta_element_set_no": 999,
        "meta_rev_at_epoch": 87588,
        "meta_bstar": 0.00033017096,
        "meta_mean_motion_dot": 1.21e-05,
        "meta_mean_motion_ddot": 0,
        "tle_line1": "1 36005U 93036AWX 25347.00563131  .00001210  00000+0  33017-3 0  9995",
        "tle_line2": "2 36005  74.0268  93.5081 0061943 230.8210 128.7437 14.47358791875885"
      },
      "geometry": {
        "type": "Point",
        "coordinates": [
          -80.15653905850372,
          -26.16754751517227
        ]
      }
    },
    {
      "type": "Feature",
      "properties": {
        "norad_id": 36045,
        "name": "COSMOS 2251 DEB",
        "group": "cosmos-2251-debris",
        "lat": 0.2100143561221468,
        "lon": 56.77687919214432,
        "alt_km": 652.2567792949912,
        "timestamp": "2025-12-13T22:39:30.108403+00:00",
        "meta_object_name": "COSMOS 2251 DEB",
        "meta_object_id": "1993-036AXG",
        "meta_epoch": "2025-12-11T13:29:08.197152",
        "meta_mean_motion": 14.69806465,
        "meta_eccentricity": 0.00482484,
        "meta_inclination": 73.7636,
        "meta_ra_of_asc_node": 61.4081,
        "meta_arg_of_pericenter": 75.4727,
        "meta_mean_anomaly": 285.1788,
        "meta_ephemeris_type": 0,
        "meta_classification_type": "U",
        "meta_norad_cat_id": 36045,
        "meta_element_set_no": 999,
        "meta_rev_at_epoch": 8371,
        "meta_bstar": 0.0031629771,
        "meta_mean_motion_dot": 0.00019249,
        "meta_mean_motion_ddot": 0,
        "tle_line1": "1 36045U 93036AXG 25345.56190043  .00019249  00000+0  31630-2 0  9995",
        "tle_line2": "2 36045  73.7636  61.4081 0048248  75.4727 285.1788 14.69806465 83717"
      },
      "geometry": {
        "type": "Point",
        "coordinates": [
          56.77687919214432,
          0.2100143561221468
        ]
      }
    }
  ]
}